[{"OBJECT_NAME":"STARLINK-5931","OBJECT_ID":"2023-078U","EPOCH":"2026-03-09T22:24:23.485824","MEAN_MOTION":14.9832927,"ECCENTRICITY":0.00028752,"INCLINATION":70.0004,"RA_OF_ASC_NODE":343.9713,"ARG_OF_PERICENTER":273.751,"MEAN_ANOMALY":86.332,"EPHEMERIS_TYPE":0,"CLASSIFICATION_TYPE":"U","NORAD_CAT_ID":56785,"ELEMENT_SET_NO":999,"REV_AT_EPOCH":15340,"BSTAR":-2.6054243e-5,"MEAN_MOTION_DOT":-4.04e-6,"MEAN_MOTION_DDOT":0},{"OBJECT_NAME":"SKYKRAFT-4E","OBJECT_ID":"2025-154L","EPOCH":"2026-03-09T17:52:42.156768","MEAN_MOTION":14.96573469,"ECCENTRICITY":0.00042366,"INCLINATION":97.6795,"RA_OF_ASC_NODE":135.3397,"ARG_OF_PERICENTER":218.3459,"MEAN_ANOMALY":141.7462,"EPHEMERIS_TYPE":0,"CLASSIFICATION_TYPE":"U","NORAD_CAT_ID":65227,"ELEMENT_SET_NO":999,"REV_AT_EPOCH":3245,"BSTAR":0.00070463663,"MEAN_MOTION_DOT":7.969e-5,"MEAN_MOTION_DDOT":0}]
